start=new Date('2021-10-16T00:00:00.000Z').valueOf();
sats=[{"GP_ID":"187280622","MEAN_MOTION_DOT":"0.00049383","MEAN_ELEMENT_THEORY":"SGP4","REV_AT_EPOCH":"368","RCS_SIZE":"LARGE","TLE_LINE2":"2 48006  53.0411 261.9315 0007760 354.4489 296.3465 15.76416526  3683","CLASSIFICATION_TYPE":"U","CENTER_NAME":"EARTH","MEAN_MOTION":"15.76416526","MEAN_ANOMALY":"296.3465","ECCENTRICITY":"0.00077600","OBJECT_ID":"2021-024AF","APOAPSIS":"345.819","EPHEMERIS_TYPE":"0","ELEMENT_SET_NO":"999","PERIAPSIS":"335.392","NORAD_CAT_ID":"48006","BSTAR":"0.00030764000000","EPOCH":"2021-10-16T00:00:02.000160","FILE":"3165217","SITE":"AFETR","OBJECT_TYPE":"PAYLOAD","SEMIMAJOR_AXIS":"6718.740","COUNTRY_CODE":"US","TLE_LINE1":"1 48006U 21024AF  21289.00002315  .00049383  00000-0  30764-3 0  9990","DECAY_DATE":null,"OBJECT_NAME":"STARLINK-2277","REF_FRAME":"TEME","MEAN_MOTION_DDOT":"0.0000000000000","INCLINATION":"53.0411","RA_OF_ASC_NODE":"261.9315","ARG_OF_PERICENTER":"354.4489","TIME_SYSTEM":"UTC","PERIOD":"91.346","LAUNCH_DATE":"2021-03-24"},{"APOAPSIS":"351.194","EPHEMERIS_TYPE":"0","PERIAPSIS":"347.670","ELEMENT_SET_NO":"999","NORAD_CAT_ID":"48007","BSTAR":"-0.00059947000000","EPOCH":"2021-10-16T00:00:02.000160","FILE":"3165217","SITE":"AFETR","RCS_SIZE":"LARGE","CLASSIFICATION_TYPE":"U","TLE_LINE2":"2 48007  53.0439 262.2161 0002619  15.9465 136.9282 15.73315082  3675","CENTER_NAME":"EARTH","MEAN_MOTION":"15.73315082","MEAN_ANOMALY":"136.9282","ECCENTRICITY":"0.00026190","OBJECT_ID":"2021-024AG","MEAN_MOTION_DOT":"-0.00084361","MEAN_ELEMENT_THEORY":"SGP4","REV_AT_EPOCH":"367","GP_ID":"187279370","LAUNCH_DATE":"2021-03-24","PERIOD":"91.526","MEAN_MOTION_DDOT":"0.0000000000000","INCLINATION":"53.0439","RA_OF_ASC_NODE":"262.2161","ARG_OF_PERICENTER":"15.9465","TIME_SYSTEM":"UTC","OBJECT_TYPE":"PAYLOAD","SEMIMAJOR_AXIS":"6727.567","COUNTRY_CODE":"US","OBJECT_NAME":"STARLINK-2259","TLE_LINE1":"1 48007U 21024AG  21289.00002315 -.00084361  00000-0 -59947-3 0  9992","DECAY_DATE":null,"REF_FRAME":"TEME"},{"PERIOD":"91.528","LAUNCH_DATE":"2021-03-24","REF_FRAME":"TEME","TLE_LINE1":"1 48008U 21024AH  21289.00002315 -.00077420  00000-0 -54947-3 0  9996","DECAY_DATE":null,"OBJECT_NAME":"STARLINK-2271","COUNTRY_CODE":"US","SEMIMAJOR_AXIS":"6727.618","OBJECT_TYPE":"PAYLOAD","TIME_SYSTEM":"UTC","ARG_OF_PERICENTER":"315.1065","RA_OF_ASC_NODE":"262.5213","MEAN_MOTION_DDOT":"0.0000000000000","INCLINATION":"53.0432","OBJECT_ID":"2021-024AH","MEAN_ANOMALY":"44.9691","ECCENTRICITY":"0.00044680","MEAN_MOTION":"15.73297350","CENTER_NAME":"EARTH","TLE_LINE2":"2 48008  53.0432 262.5213 0004468 315.1065  44.9691 15.73297350  3674","CLASSIFICATION_TYPE":"U","RCS_SIZE":"LARGE","SITE":"AFETR","FILE":"3165217","EPOCH":"2021-10-16T00:00:02.000160","BSTAR":"-0.00054947000000","PERIAPSIS":"346.477","ELEMENT_SET_NO":"999","NORAD_CAT_ID":"48008","EPHEMERIS_TYPE":"0","APOAPSIS":"352.489","GP_ID":"187280120","REV_AT_EPOCH":"367","MEAN_ELEMENT_THEORY":"SGP4","MEAN_MOTION_DOT":"-0.00077420"},{"LAUNCH_DATE":"2021-03-24","PERIOD":"95.593","INCLINATION":"53.0555","MEAN_MOTION_DDOT":"0.0000000000000","ARG_OF_PERICENTER":"83.8223","TIME_SYSTEM":"UTC","RA_OF_ASC_NODE":"327.1387","SEMIMAJOR_AXIS":"6925.384","OBJECT_TYPE":"PAYLOAD","TLE_LINE1":"1 48009U 21024AJ  21288.48499848 -.00000538  00000-0 -17212-4 0  9990","OBJECT_NAME":"STARLINK-2153","DECAY_DATE":null,"REF_FRAME":"TEME","COUNTRY_CODE":"US","PERIAPSIS":"546.326","ELEMENT_SET_NO":"999","NORAD_CAT_ID":"48009","BSTAR":"-0.00001721200000","APOAPSIS":"548.172","EPHEMERIS_TYPE":"0","FILE":"3165217","SITE":"AFETR","EPOCH":"2021-10-15T11:38:23.868672","CENTER_NAME":"EARTH","MEAN_MOTION":"15.06388491","RCS_SIZE":"LARGE","TLE_LINE2":"2 48009  53.0555 327.1387 0001333  83.8223 276.2918 15.06388491 32693","CLASSIFICATION_TYPE":"U","OBJECT_ID":"2021-024AJ","ECCENTRICITY":"0.00013330","MEAN_ANOMALY":"276.2918","MEAN_ELEMENT_THEORY":"SGP4","MEAN_MOTION_DOT":"-0.00000538","REV_AT_EPOCH":"3269","GP_ID":"187280372"},{"GP_ID":"187281122","MEAN_ELEMENT_THEORY":"SGP4","MEAN_MOTION_DOT":"-0.00001130","REV_AT_EPOCH":"3242","CENTER_NAME":"EARTH","MEAN_MOTION":"15.06385218","RCS_SIZE":"LARGE","TLE_LINE2":"2 48010  53.0530 346.8305 0001258  82.2512 277.8620 15.06385218 32428","CLASSIFICATION_TYPE":"U","OBJECT_ID":"2021-024AK","MEAN_ANOMALY":"277.8620","ECCENTRICITY":"0.00012580","PERIAPSIS":"546.388","NORAD_CAT_ID":"48010","ELEMENT_SET_NO":"999","BSTAR":"-0.00005702900000","APOAPSIS":"548.130","EPHEMERIS_TYPE":"0","FILE":"3165217","SITE":"AFETR","EPOCH":"2021-10-15T13:28:35.105088","SEMIMAJOR_AXIS":"6925.394","OBJECT_TYPE":"PAYLOAD","OBJECT_NAME":"STARLINK-2226","TLE_LINE1":"1 48010U 21024AK  21288.56151742 -.00001130  00000-0 -57029-4 0  9998","DECAY_DATE":null,"REF_FRAME":"TEME","COUNTRY_CODE":"US","MEAN_MOTION_DDOT":"0.0000000000000","INCLINATION":"53.0530","ARG_OF_PERICENTER":"82.2512","TIME_SYSTEM":"UTC","RA_OF_ASC_NODE":"346.8305","PERIOD":"95.593","LAUNCH_DATE":"2021-03-24"},{"LAUNCH_DATE":"2021-03-24","PERIOD":"95.593","RA_OF_ASC_NODE":"326.9868","ARG_OF_PERICENTER":"90.4461","TIME_SYSTEM":"UTC","INCLINATION":"53.0551","MEAN_MOTION_DDOT":"0.0000000000000","COUNTRY_CODE":"US","DECAY_DATE":null,"TLE_LINE1":"1 48011U 21024AL  21288.51818671 -.00001259  00000-0 -65642-4 0  9997","OBJECT_NAME":"STARLINK-2272","REF_FRAME":"TEME","OBJECT_TYPE":"PAYLOAD","SEMIMAJOR_AXIS":"6925.393","EPOCH":"2021-10-15T12:26:11.331744","FILE":"3165217","SITE":"AFETR","APOAPSIS":"548.113","EPHEMERIS_TYPE":"0","PERIAPSIS":"546.403","NORAD_CAT_ID":"48011","ELEMENT_SET_NO":"999","BSTAR":"-0.00006564200000","MEAN_ANOMALY":"269.6669","ECCENTRICITY":"0.00012350","OBJECT_ID":"2021-024AL","RCS_SIZE":"LARGE","TLE_LINE2":"2 48011  53.0551 326.9868 0001235  90.4461 269.6669 15.06385498 32752","CLASSIFICATION_TYPE":"U","CENTER_NAME":"EARTH","MEAN_MOTION":"15.06385498","REV_AT_EPOCH":"3275","MEAN_MOTION_DOT":"-0.00001259","MEAN_ELEMENT_THEORY":"SGP4","GP_ID":"187279870"},{"REV_AT_EPOCH":"3309","MEAN_ELEMENT_THEORY":"SGP4","MEAN_MOTION_DOT":"0.00000563","GP_ID":"187279621","SITE":"AFETR","FILE":"3165217","EPOCH":"2021-10-15T10:57:58.616352","BSTAR":"0.00005668700000","NORAD_CAT_ID":"48012","PERIAPSIS":"546.316","ELEMENT_SET_NO":"999","EPHEMERIS_TYPE":"0","APOAPSIS":"548.192","OBJECT_ID":"2021-024AM","MEAN_ANOMALY":"278.2161","ECCENTRICITY":"0.00013550","MEAN_MOTION":"15.06386820","CENTER_NAME":"EARTH","TLE_LINE2":"2 48012  53.0541 302.2608 0001355  81.8982 278.2161 15.06386820 33097","CLASSIFICATION_TYPE":"U","RCS_SIZE":"LARGE","TIME_SYSTEM":"UTC","ARG_OF_PERICENTER":"81.8982","RA_OF_ASC_NODE":"302.2608","INCLINATION":"53.0541","MEAN_MOTION_DDOT":"0.0000000000000","REF_FRAME":"TEME","TLE_LINE1":"1 48012U 21024AM  21288.45692843  .00000563  00000-0  56687-4 0  9996","OBJECT_NAME":"STARLINK-2216","DECAY_DATE":null,"COUNTRY_CODE":"US","SEMIMAJOR_AXIS":"6925.389","OBJECT_TYPE":"PAYLOAD","LAUNCH_DATE":"2021-03-24","PERIOD":"95.593"},{"LAUNCH_DATE":"2021-03-24","PERIOD":"95.852","TIME_SYSTEM":"UTC","ARG_OF_PERICENTER":"85.2642","RA_OF_ASC_NODE":"310.5427","INCLINATION":"53.0546","MEAN_MOTION_DDOT":"0.0000000000000","REF_FRAME":"TEME","DECAY_DATE":null,"TLE_LINE1":"1 48013U 21024AN  21288.77310259 -.00001839  00000-0 -11745-3 0  9994","OBJECT_NAME":"STARLINK-2243","COUNTRY_CODE":"US","SEMIMAJOR_AXIS":"6937.873","OBJECT_TYPE":"PAYLOAD","SITE":"AFETR","FILE":"3165217","EPOCH":"2021-10-15T18:33:16.063776","BSTAR":"-0.00011745000000","NORAD_CAT_ID":"48013","PERIAPSIS":"559.055","ELEMENT_SET_NO":"999","EPHEMERIS_TYPE":"0","APOAPSIS":"560.421","OBJECT_ID":"2021-024AN","MEAN_ANOMALY":"274.8458","ECCENTRICITY":"0.00009850","MEAN_MOTION":"15.02322766","CENTER_NAME":"EARTH","TLE_LINE2":"2 48013  53.0546 310.5427 0000985  85.2642 274.8458 15.02322766 32953","CLASSIFICATION_TYPE":"U","RCS_SIZE":"LARGE","REV_AT_EPOCH":"3295","MEAN_ELEMENT_THEORY":"SGP4","MEAN_MOTION_DOT":"-0.00001839","GP_ID":"187280872"},{"LAUNCH_DATE":"2021-03-24","PERIOD":"95.644","INCLINATION":"53.0528","MEAN_MOTION_DDOT":"0.0000000000000","RA_OF_ASC_NODE":"273.2218","TIME_SYSTEM":"UTC","ARG_OF_PERICENTER":"50.8746","OBJECT_TYPE":"PAYLOAD","SEMIMAJOR_AXIS":"6927.866","COUNTRY_CODE":"US","REF_FRAME":"TEME","OBJECT_NAME":"STARLINK-2283","TLE_LINE1":"1 48014U 21024AP  21289.00002315  .00003338  00000-0  24819-3 0  9993","DECAY_DATE":null,"EPHEMERIS_TYPE":"0","APOAPSIS":"551.155","BSTAR":"0.00024819000000","PERIAPSIS":"548.306","NORAD_CAT_ID":"48014","ELEMENT_SET_NO":"999","EPOCH":"2021-10-16T00:00:02.000160","SITE":"AFETR","FILE":"3165217","TLE_LINE2":"2 48014  53.0528 273.2218 0002056  50.8746  43.6649 15.05579113  3619","CLASSIFICATION_TYPE":"U","RCS_SIZE":"LARGE","MEAN_MOTION":"15.05579113","CENTER_NAME":"EARTH","MEAN_ANOMALY":"43.6649","ECCENTRICITY":"0.00020560","OBJECT_ID":"2021-024AP","MEAN_MOTION_DOT":"0.00003338","MEAN_ELEMENT_THEORY":"SGP4","REV_AT_EPOCH":"361","GP_ID":"187280623"},{"COUNTRY_CODE":"US","REF_FRAME":"TEME","TLE_LINE1":"1 48015U 21024AQ  21289.00002315 -.00123143  00000-0 -88074-3 0  9996","DECAY_DATE":null,"OBJECT_NAME":"STARLINK-2281","OBJECT_TYPE":"PAYLOAD","SEMIMAJOR_AXIS":"6727.527","RA_OF_ASC_NODE":"262.2098","TIME_SYSTEM":"UTC","ARG_OF_PERICENTER":"41.8947","MEAN_MOTION_DDOT":"0.0000000000000","INCLINATION":"53.0438","PERIOD":"91.526","LAUNCH_DATE":"2021-03-24","GP_ID":"187279371","REV_AT_EPOCH":"367","MEAN_MOTION_DOT":"-0.00123143","MEAN_ELEMENT_THEORY":"SGP4","MEAN_ANOMALY":"111.6472","ECCENTRICITY":"0.00017810","OBJECT_ID":"2021-024AQ","TLE_LINE2":"2 48015  53.0438 262.2098 0001781  41.8947 111.6472 15.73328973  3678","CLASSIFICATION_TYPE":"U","RCS_SIZE":"LARGE","MEAN_MOTION":"15.73328973","CENTER_NAME":"EARTH","EPOCH":"2021-10-16T00:00:02.000160","SITE":"AFETR","FILE":"3165217","EPHEMERIS_TYPE":"0","APOAPSIS":"350.591","BSTAR":"-0.00088074000000","PERIAPSIS":"348.194","ELEMENT_SET_NO":"999","NORAD_CAT_ID":"48015"}];
